FENGYUN 1C DEB          
1 31774U 99025CFZ 17345.93803714  .00000475  00000-0  29714-3 0  9994
2 31774  98.9710  22.6465 0073879 198.7789 161.0652 14.08135765217704
